{
  "type": "FeatureCollection",
  "features": [
    {
      "type": "Feature",
      "properties": {
        "norad_id": 66863,
        "name": "STARLINK-36134",
        "group": "last-30-days",
        "lat": -38.75872967299856,
        "lon": -6.626515617807516,
        "alt_km": 392.9077464815555,
        "timestamp": "2025-12-24T03:53:28.362689+00:00",
        "meta_object_name": "STARLINK-36134",
        "meta_object_id": "2025-281R",
        "meta_epoch": "2025-12-23T20:00:01.000224",
        "meta_mean_motion": 15.60413239,
        "meta_eccentricity": 0.0001083,
        "meta_inclination": 43.0002,
        "meta_ra_of_asc_node": 54.8146,
        "meta_arg_of_pericenter": 269.8897,
        "meta_mean_anomaly": 335.1293,
        "meta_ephemeris_type": 0,
        "meta_classification_type": "U",
        "meta_norad_cat_id": 66863,
        "meta_element_set_no": 999,
        "meta_rev_at_epoch": 317,
        "meta_bstar": -0.02686,
        "meta_mean_motion_dot": -0.01991193,
        "meta_mean_motion_ddot": 0,
        "tle_line1": "1 66863U 25281R   25357.83334491 -.01991193  00000+0 -26860-1 0  9991",
        "tle_line2": "2 66863  43.0002  54.8146 0001083 269.8897 335.1293 15.60413239  3170"
      },
      "geometry": {
        "type": "Point",
        "coordinates": [
          -6.626515617807516,
          -38.75872967299856
        ]
      }
    },
    {
      "type": "Feature",
      "properties": {
        "norad_id": 66864,
        "name": "STARLINK-36070",
        "group": "last-30-days",
        "lat": -38.07383197400581,
        "lon": -4.350564324038588,
        "alt_km": 392.7850681626469,
        "timestamp": "2025-12-24T03:53:28.362700+00:00",
        "meta_object_name": "STARLINK-36070",
        "meta_object_id": "2025-281S",
        "meta_epoch": "2025-12-23T20:00:01.000224",
        "meta_mean_motion": 15.60415817,
        "meta_eccentricity": 0.000123,
        "meta_inclination": 43,
        "meta_ra_of_asc_node": 54.8093,
        "meta_arg_of_pericenter": 271.2933,
        "meta_mean_anomaly": 335.641,
        "meta_ephemeris_type": 0,
        "meta_classification_type": "U",
        "meta_norad_cat_id": 66864,
        "meta_element_set_no": 999,
        "meta_rev_at_epoch": 320,
        "meta_bstar": -0.026928,
        "meta_mean_motion_dot": -0.01995901,
        "meta_mean_motion_ddot": 0,
        "tle_line1": "1 66864U 25281S   25357.83334491 -.01995901  00000+0 -26928-1 0  9998",
        "tle_line2": "2 66864  43.0000  54.8093 0001230 271.2933 335.6410 15.60415817  3206"
      },
      "geometry": {
        "type": "Point",
        "coordinates": [
          -4.350564324038588,
          -38.07383197400581
        ]
      }
    },
    {
      "type": "Feature",
      "properties": {
        "norad_id": 66865,
        "name": "STARLINK-36117",
        "group": "last-30-days",
        "lat": -36.57755867246775,
        "lon": 0.06923847132353138,
        "alt_km": 392.8548922163918,
        "timestamp": "2025-12-24T03:53:28.362710+00:00",
        "meta_object_name": "STARLINK-36117",
        "meta_object_id": "2025-281T",
        "meta_epoch": "2025-12-23T20:00:01.000224",
        "meta_mean_motion": 15.60413218,
        "meta_eccentricity": 9.56e-05,
        "meta_inclination": 43.0001,
        "meta_ra_of_asc_node": 54.8004,
        "meta_arg_of_pericenter": 280.8245,
        "meta_mean_anomaly": 329.944,
        "meta_ephemeris_type": 0,
        "meta_classification_type": "U",
        "meta_norad_cat_id": 66865,
        "meta_element_set_no": 999,
        "meta_rev_at_epoch": 317,
        "meta_bstar": -0.026844,
        "meta_mean_motion_dot": -0.01990061,
        "meta_mean_motion_ddot": 0,
        "tle_line1": "1 66865U 25281T   25357.83334491 -.01990061  00000+0 -26844-1 0  9998",
        "tle_line2": "2 66865  43.0001  54.8004 0000956 280.8245 329.9440 15.60413218  3174"
      },
      "geometry": {
        "type": "Point",
        "coordinates": [
          0.06923847132353138,
          -36.57755867246775
        ]
      }
    },
    {
      "type": "Feature",
      "properties": {
        "norad_id": 66866,
        "name": "STARLINK-36126",
        "group": "last-30-days",
        "lat": -35.766644793812816,
        "lon": 2.2191427331868994,
        "alt_km": 392.8567672907575,
        "timestamp": "2025-12-24T03:53:28.362723+00:00",
        "meta_object_name": "STARLINK-36126",
        "meta_object_id": "2025-281U",
        "meta_epoch": "2025-12-23T20:00:01.000224",
        "meta_mean_motion": 15.60416373,
        "meta_eccentricity": 0.0001045,
        "meta_inclination": 43,
        "meta_ra_of_asc_node": 54.7955,
        "meta_arg_of_pericenter": 267.2139,
        "meta_mean_anomaly": 345.4704,
        "meta_ephemeris_type": 0,
        "meta_classification_type": "U",
        "meta_norad_cat_id": 66866,
        "meta_element_set_no": 999,
        "meta_rev_at_epoch": 320,
        "meta_bstar": -0.026905,
        "meta_mean_motion_dot": -0.01994304,
        "meta_mean_motion_ddot": 0,
        "tle_line1": "1 66866U 25281U   25357.83334491 -.01994304  00000+0 -26905-1 0  9991",
        "tle_line2": "2 66866  43.0000  54.7955 0001045 267.2139 345.4704 15.60416373  3204"
      },
      "geometry": {
        "type": "Point",
        "coordinates": [
          2.2191427331868994,
          -35.766644793812816
        ]
      }
    },
    {
      "type": "Feature",
      "properties": {
        "norad_id": 66867,
        "name": "STARLINK-36101",
        "group": "last-30-days",
        "lat": -34.92158671052491,
        "lon": 4.31653492768931,
        "alt_km": 392.7658377094649,
        "timestamp": "2025-12-24T03:53:28.362733+00:00",
        "meta_object_name": "STARLINK-36101",
        "meta_object_id": "2025-281V",
        "meta_epoch": "2025-12-23T20:00:01.000224",
        "meta_mean_motion": 15.60414863,
        "meta_eccentricity": 0.0001061,
        "meta_inclination": 43.0002,
        "meta_ra_of_asc_node": 54.7903,
        "meta_arg_of_pericenter": 273.6598,
        "meta_mean_anomaly": 340.9421,
        "meta_ephemeris_type": 0,
        "meta_classification_type": "U",
        "meta_norad_cat_id": 66867,
        "meta_element_set_no": 999,
        "meta_rev_at_epoch": 301,
        "meta_bstar": -0.026911,
        "meta_mean_motion_dot": -0.0199459,
        "meta_mean_motion_ddot": 0,
        "tle_line1": "1 66867U 25281V   25357.83334491 -.01994590  00000+0 -26911-1 0  9996",
        "tle_line2": "2 66867  43.0002  54.7903 0001061 273.6598 340.9421 15.60414863  3015"
      },
      "geometry": {
        "type": "Point",
        "coordinates": [
          4.31653492768931,
          -34.92158671052491
        ]
      }
    },
    {
      "type": "Feature",
      "properties": {
        "norad_id": 66868,
        "name": "STARLINK-36108",
        "group": "last-30-days",
        "lat": -34.03982296245973,
        "lon": 6.372516066208661,
        "alt_km": 392.66709644140155,
        "timestamp": "2025-12-24T03:53:28.362745+00:00",
        "meta_object_name": "STARLINK-36108",
        "meta_object_id": "2025-281W",
        "meta_epoch": "2025-12-23T20:00:01.000224",
        "meta_mean_motion": 15.60411939,
        "meta_eccentricity": 0.0001143,
        "meta_inclination": 43,
        "meta_ra_of_asc_node": 54.7855,
        "meta_arg_of_pericenter": 275.0231,
        "meta_mean_anomaly": 341.4957,
        "meta_ephemeris_type": 0,
        "meta_classification_type": "U",
        "meta_norad_cat_id": 66868,
        "meta_element_set_no": 999,
        "meta_rev_at_epoch": 301,
        "meta_bstar": -0.026838,
        "meta_mean_motion_dot": -0.01989703,
        "meta_mean_motion_ddot": 0,
        "tle_line1": "1 66868U 25281W   25357.83334491 -.01989703  00000+0 -26838-1 0  9995",
        "tle_line2": "2 66868  43.0000  54.7855 0001143 275.0231 341.4957 15.60411939  3012"
      },
      "geometry": {
        "type": "Point",
        "coordinates": [
          6.372516066208661,
          -34.03982296245973
        ]
      }
    },
    {
      "type": "Feature",
      "properties": {
        "norad_id": 66869,
        "name": "STARLINK-36092",
        "group": "last-30-days",
        "lat": -33.12391750566824,
        "lon": 8.387232195291228,
        "alt_km": 392.63782009647366,
        "timestamp": "2025-12-24T03:53:28.362755+00:00",
        "meta_object_name": "STARLINK-36092",
        "meta_object_id": "2025-281X",
        "meta_epoch": "2025-12-23T20:00:01.000224",
        "meta_mean_motion": 15.60412658,
        "meta_eccentricity": 0.0001151,
        "meta_inclination": 43.0002,
        "meta_ra_of_asc_node": 54.7808,
        "meta_arg_of_pericenter": 273.3643,
        "meta_mean_anomaly": 345.0704,
        "meta_ephemeris_type": 0,
        "meta_classification_type": "U",
        "meta_norad_cat_id": 66869,
        "meta_element_set_no": 999,
        "meta_rev_at_epoch": 320,
        "meta_bstar": -0.026832,
        "meta_mean_motion_dot": -0.0198935,
        "meta_mean_motion_ddot": 0,
        "tle_line1": "1 66869U 25281X   25357.83334491 -.01989350  00000+0 -26832-1 0  9998",
        "tle_line2": "2 66869  43.0002  54.7808 0001151 273.3643 345.0704 15.60412658  3200"
      },
      "geometry": {
        "type": "Point",
        "coordinates": [
          8.387232195291228,
          -33.12391750566824
        ]
      }
    }
  ]
}